GLOBALSTAR M094         
1 39074U 13005C   25350.69602198 -.00000095  00000+0  46450-4 0  9995
2 39074  51.9979 346.4315 0000249  16.4565 343.6310 12.62265406595422
GLOBALSTAR M096         
1 39075U 13005D   25350.39233424 -.00000096  00000+0  41968-4 0  9995
2 39075  52.0090  36.0113 0000191 145.7574 214.3305 12.62269414594306
GLOBALSTAR M078         
1 39076U 13005E   25350.68307499 -.00000109  00000+0 -28192-4 0  9992
2 39076  51.9862 119.3900 0000899 170.5372 189.5511 12.62272510592961
GLOBALSTAR M095         
1 39077U 13005F   25350.63014156 -.00000115  00000+0 -65025-4 0  9996
2 39077  52.0069 116.8955 0000567 132.4893 227.6021 12.62267284592818
GLOBALSTAR M087         
1 52888U 22064A   25350.95992350 -.00000082  00000+0  11956-3 0  9997
2 52888  51.9995 257.2357 0000678  48.5303 311.5622 12.62261475168120
